start=new Date('2021-10-03T00:00:00.000Z').valueOf();
sats=[{"MEAN_ELEMENT_THEORY":"SGP4","MEAN_MOTION":"15.06401899","PERIOD":"95.592","TIME_SYSTEM":"UTC","ECCENTRICITY":"0.00006550","REV_AT_EPOCH":"2246","MEAN_ANOMALY":"319.4102","EPHEMERIS_TYPE":"0","NORAD_CAT_ID":"48474","INCLINATION":"53.0462","OBJECT_TYPE":"PAYLOAD","FILE":"3141323","GP_ID":"186053951","OBJECT_ID":"2021-040AY","SEMIMAJOR_AXIS":"6925.343","COUNTRY_CODE":"US","LAUNCH_DATE":"2021-05-09","REF_FRAME":"TEME","PERIAPSIS":"546.754","BSTAR":"0.00002821700000","TLE_LINE2":"2 48474  53.0462 259.5841 0000655  40.6936 319.4102 15.06401899 22464","TLE_LINE1":"1 48474U 21040AY  21275.69802693  .00000139  00000-0  28217-4 0  9991","DECAY_DATE":null,"CLASSIFICATION_TYPE":"U","CENTER_NAME":"EARTH","OBJECT_NAME":"STARLINK-2697","RA_OF_ASC_NODE":"259.5841","ELEMENT_SET_NO":"999","ARG_OF_PERICENTER":"40.6936","MEAN_MOTION_DOT":"0.00000139","RCS_SIZE":"LARGE","SITE":"AFETR","MEAN_MOTION_DDOT":"0.0000000000000","EPOCH":"2021-10-02T16:45:09.526752","APOAPSIS":"547.661"},{"EPOCH":"2021-10-02T16:02:42.332928","APOAPSIS":"547.843","RCS_SIZE":"LARGE","MEAN_MOTION_DDOT":"0.0000000000000","SITE":"AFETR","MEAN_MOTION_DOT":"0.00000101","ARG_OF_PERICENTER":"64.1599","RA_OF_ASC_NODE":"259.6783","OBJECT_NAME":"STARLINK-2619","ELEMENT_SET_NO":"999","TLE_LINE1":"1 48475U 21040AZ  21275.66854552  .00000101  00000-0  25674-4 0  9993","TLE_LINE2":"2 48475  53.0559 259.6783 0000904  64.1599 295.9483 15.06398938 22460","DECAY_DATE":null,"CENTER_NAME":"EARTH","CLASSIFICATION_TYPE":"U","BSTAR":"0.00002567400000","PERIAPSIS":"546.591","REF_FRAME":"TEME","COUNTRY_CODE":"US","LAUNCH_DATE":"2021-05-09","GP_ID":"186053407","OBJECT_ID":"2021-040AZ","FILE":"3141323","SEMIMAJOR_AXIS":"6925.352","MEAN_ANOMALY":"295.9483","EPHEMERIS_TYPE":"0","OBJECT_TYPE":"PAYLOAD","INCLINATION":"53.0559","NORAD_CAT_ID":"48475","REV_AT_EPOCH":"2246","ECCENTRICITY":"0.00009040","TIME_SYSTEM":"UTC","PERIOD":"95.592","MEAN_ELEMENT_THEORY":"SGP4","MEAN_MOTION":"15.06398938"},{"SEMIMAJOR_AXIS":"6925.356","FILE":"3141323","GP_ID":"186053843","OBJECT_ID":"2021-040BA","OBJECT_TYPE":"PAYLOAD","INCLINATION":"53.0277","NORAD_CAT_ID":"48476","MEAN_ANOMALY":"296.8511","EPHEMERIS_TYPE":"0","REF_FRAME":"TEME","LAUNCH_DATE":"2021-05-09","COUNTRY_CODE":"US","MEAN_MOTION":"15.06397706","MEAN_ELEMENT_THEORY":"SGP4","REV_AT_EPOCH":"2246","ECCENTRICITY":"0.00013280","TIME_SYSTEM":"UTC","PERIOD":"95.592","MEAN_MOTION_DOT":"0.00000453","ARG_OF_PERICENTER":"63.2614","EPOCH":"2021-10-02T16:34:33.190752","APOAPSIS":"548.140","SITE":"AFETR","MEAN_MOTION_DDOT":"0.0000000000000","RCS_SIZE":"LARGE","BSTAR":"0.00004931500000","PERIAPSIS":"546.301","ELEMENT_SET_NO":"999","RA_OF_ASC_NODE":"259.7220","OBJECT_NAME":"STARLINK-2723","CENTER_NAME":"EARTH","CLASSIFICATION_TYPE":"U","TLE_LINE2":"2 48476  53.0277 259.7220 0001328  63.2614 296.8511 15.06397706 22468","TLE_LINE1":"1 48476U 21040BA  21275.69066193  .00000453  00000-0  49315-4 0  9991","DECAY_DATE":null},{"DECAY_DATE":null,"TLE_LINE2":"2 48478  53.0558 259.6479 0000908  50.4818 309.6251 15.06396645 22469","TLE_LINE1":"1 48478U 21040BC  21275.67591833 -.00000184  00000-0  65490-5 0  9990","CENTER_NAME":"EARTH","CLASSIFICATION_TYPE":"U","RA_OF_ASC_NODE":"259.6479","OBJECT_NAME":"STARLINK-2728","ELEMENT_SET_NO":"999","PERIAPSIS":"546.595","BSTAR":"0.00000654900000","RCS_SIZE":"LARGE","SITE":"AFETR","MEAN_MOTION_DDOT":"0.0000000000000","EPOCH":"2021-10-02T16:13:19.343712","APOAPSIS":"547.853","ARG_OF_PERICENTER":"50.4818","MEAN_MOTION_DOT":"-0.00000184","PERIOD":"95.592","REV_AT_EPOCH":"2246","ECCENTRICITY":"0.00009080","TIME_SYSTEM":"UTC","MEAN_ELEMENT_THEORY":"SGP4","MEAN_MOTION":"15.06396645","COUNTRY_CODE":"US","LAUNCH_DATE":"2021-05-09","REF_FRAME":"TEME","EPHEMERIS_TYPE":"0","MEAN_ANOMALY":"309.6251","INCLINATION":"53.0558","OBJECT_TYPE":"PAYLOAD","NORAD_CAT_ID":"48478","GP_ID":"186054060","FILE":"3141323","OBJECT_ID":"2021-040BC","SEMIMAJOR_AXIS":"6925.359"},{"PERIOD":"95.592","REV_AT_EPOCH":"2246","ECCENTRICITY":"0.00009740","TIME_SYSTEM":"UTC","MEAN_ELEMENT_THEORY":"SGP4","MEAN_MOTION":"15.06401954","COUNTRY_CODE":"US","LAUNCH_DATE":"2021-05-09","REF_FRAME":"TEME","EPHEMERIS_TYPE":"0","MEAN_ANOMALY":"285.8061","OBJECT_TYPE":"PAYLOAD","INCLINATION":"53.0556","NORAD_CAT_ID":"48479","OBJECT_ID":"2021-040BD","GP_ID":"186053624","FILE":"3141323","SEMIMAJOR_AXIS":"6925.343","TLE_LINE2":"2 48479  53.0556 259.6647 0000974  74.3036 285.8061 15.06401954 22469","TLE_LINE1":"1 48479U 21040BD  21275.67223084  .00001935  00000-0  14874-3 0  9993","DECAY_DATE":null,"CENTER_NAME":"EARTH","CLASSIFICATION_TYPE":"U","RA_OF_ASC_NODE":"259.6647","OBJECT_NAME":"STARLINK-2755","ELEMENT_SET_NO":"999","PERIAPSIS":"546.533","BSTAR":"0.00014874000000","RCS_SIZE":"LARGE","MEAN_MOTION_DDOT":"0.0000000000000","SITE":"AFETR","APOAPSIS":"547.882","EPOCH":"2021-10-02T16:08:00.744576","ARG_OF_PERICENTER":"74.3036","MEAN_MOTION_DOT":"0.00001935"},{"ARG_OF_PERICENTER":"63.1821","MEAN_MOTION_DOT":"0.00000985","MEAN_MOTION_DDOT":"0.0000000000000","SITE":"AFETR","RCS_SIZE":"LARGE","EPOCH":"2021-10-02T16:27:54.996480","APOAPSIS":"547.787","PERIAPSIS":"546.632","BSTAR":"0.00008497900000","CLASSIFICATION_TYPE":"U","CENTER_NAME":"EARTH","TLE_LINE2":"2 48480  53.0535 269.5947 0000834  63.1821 296.9253 15.06401270 22326","TLE_LINE1":"1 48480U 21040BE  21275.68605320  .00000985  00000-0  84979-4 0  9991","DECAY_DATE":null,"ELEMENT_SET_NO":"999","OBJECT_NAME":"STARLINK-2690","RA_OF_ASC_NODE":"269.5947","NORAD_CAT_ID":"48480","INCLINATION":"53.0535","OBJECT_TYPE":"PAYLOAD","EPHEMERIS_TYPE":"0","MEAN_ANOMALY":"296.9253","SEMIMAJOR_AXIS":"6925.345","GP_ID":"186053735","FILE":"3141323","OBJECT_ID":"2021-040BE","LAUNCH_DATE":"2021-05-09","COUNTRY_CODE":"US","REF_FRAME":"TEME","MEAN_MOTION":"15.06401270","MEAN_ELEMENT_THEORY":"SGP4","PERIOD":"95.592","TIME_SYSTEM":"UTC","REV_AT_EPOCH":"2232","ECCENTRICITY":"0.00008340"},{"PERIAPSIS":"546.755","BSTAR":"0.00013075000000","TLE_LINE2":"2 48481  53.0537 269.5326 0000684  51.0264 309.0786 15.06395026 22328","DECAY_DATE":null,"TLE_LINE1":"1 48481U 21040BF  21275.69985629  .00001667  00000-0  13075-3 0  9992","CLASSIFICATION_TYPE":"U","CENTER_NAME":"EARTH","OBJECT_NAME":"STARLINK-2706","RA_OF_ASC_NODE":"269.5326","ELEMENT_SET_NO":"999","ARG_OF_PERICENTER":"51.0264","MEAN_MOTION_DOT":"0.00001667","RCS_SIZE":"LARGE","MEAN_MOTION_DDOT":"0.0000000000000","SITE":"AFETR","EPOCH":"2021-10-02T16:47:47.583456","APOAPSIS":"547.702","MEAN_ELEMENT_THEORY":"SGP4","MEAN_MOTION":"15.06395026","PERIOD":"95.592","TIME_SYSTEM":"UTC","REV_AT_EPOCH":"2232","ECCENTRICITY":"0.00006840","EPHEMERIS_TYPE":"0","MEAN_ANOMALY":"309.0786","NORAD_CAT_ID":"48481","OBJECT_TYPE":"PAYLOAD","INCLINATION":"53.0537","OBJECT_ID":"2021-040BF","GP_ID":"186053516","FILE":"3141323","SEMIMAJOR_AXIS":"6925.364","COUNTRY_CODE":"US","LAUNCH_DATE":"2021-05-09","REF_FRAME":"TEME"},{"EPHEMERIS_TYPE":"0","MEAN_ANOMALY":"292.4194","NORAD_CAT_ID":"48482","OBJECT_TYPE":"PAYLOAD","INCLINATION":"53.0549","GP_ID":"186054167","OBJECT_ID":"2021-040BG","FILE":"3141323","SEMIMAJOR_AXIS":"6925.361","COUNTRY_CODE":"US","LAUNCH_DATE":"2021-05-09","REF_FRAME":"TEME","MEAN_ELEMENT_THEORY":"SGP4","MEAN_MOTION":"15.06396070","PERIOD":"95.592","TIME_SYSTEM":"UTC","ECCENTRICITY":"0.00006830","REV_AT_EPOCH":"2232","ARG_OF_PERICENTER":"67.6867","MEAN_MOTION_DOT":"0.00000201","RCS_SIZE":"LARGE","MEAN_MOTION_DDOT":"0.0000000000000","SITE":"AFETR","EPOCH":"2021-10-02T16:38:32.509248","APOAPSIS":"547.699","PERIAPSIS":"546.753","BSTAR":"0.00003239500000","TLE_LINE2":"2 48482  53.0549 269.5659 0000683  67.6867 292.4194 15.06396070 22320","DECAY_DATE":null,"TLE_LINE1":"1 48482U 21040BG  21275.69343182  .00000201  00000-0  32395-4 0  9995","CLASSIFICATION_TYPE":"U","CENTER_NAME":"EARTH","OBJECT_NAME":"STARLINK-2525","RA_OF_ASC_NODE":"269.5659","ELEMENT_SET_NO":"999"},{"REF_FRAME":"TEME","COUNTRY_CODE":"US","LAUNCH_DATE":"2021-05-09","GP_ID":"186053952","FILE":"3141323","OBJECT_ID":"2021-040BH","SEMIMAJOR_AXIS":"6925.346","MEAN_ANOMALY":"291.6666","EPHEMERIS_TYPE":"0","NORAD_CAT_ID":"48483","INCLINATION":"53.0557","OBJECT_TYPE":"PAYLOAD","TIME_SYSTEM":"UTC","ECCENTRICITY":"0.00008140","REV_AT_EPOCH":"2232","PERIOD":"95.592","MEAN_ELEMENT_THEORY":"SGP4","MEAN_MOTION":"15.06400930","EPOCH":"2021-10-02T16:33:13.578336","APOAPSIS":"547.774","RCS_SIZE":"LARGE","MEAN_MOTION_DDOT":"0.0000000000000","SITE":"AFETR","MEAN_MOTION_DOT":"0.00000061","ARG_OF_PERICENTER":"68.4410","OBJECT_NAME":"STARLINK-2531","RA_OF_ASC_NODE":"269.5808","ELEMENT_SET_NO":"999","TLE_LINE2":"2 48483  53.0557 269.5808 0000814  68.4410 291.6666 15.06400930 22321","DECAY_DATE":null,"TLE_LINE1":"1 48483U 21040BH  21275.68974049  .00000061  00000-0  22996-4 0  9997","CLASSIFICATION_TYPE":"U","CENTER_NAME":"EARTH","BSTAR":"0.00002299600000","PERIAPSIS":"546.647"},{"EPOCH":"2021-10-02T14:24:28.810080","APOAPSIS":"547.920","SITE":"AFETR","MEAN_MOTION_DDOT":"0.0000000000000","RCS_SIZE":"LARGE","MEAN_MOTION_DOT":"0.00001918","ARG_OF_PERICENTER":"63.8789","ELEMENT_SET_NO":"999","RA_OF_ASC_NODE":"269.9781","OBJECT_NAME":"STARLINK-2696","CENTER_NAME":"EARTH","CLASSIFICATION_TYPE":"U","DECAY_DATE":null,"TLE_LINE2":"2 48484  53.0546 269.9781 0001024  63.8789 296.2306 15.06401011 22318","TLE_LINE1":"1 48484U 21040BJ  21275.60033345  .00001918  00000-0  14758-3 0  9993","BSTAR":"0.00014758000000","PERIAPSIS":"546.501","REF_FRAME":"TEME","LAUNCH_DATE":"2021-05-09","COUNTRY_CODE":"US","SEMIMAJOR_AXIS":"6925.345","OBJECT_ID":"2021-040BJ","GP_ID":"186053408","FILE":"3141323","INCLINATION":"53.0546","OBJECT_TYPE":"PAYLOAD","NORAD_CAT_ID":"48484","MEAN_ANOMALY":"296.2306","EPHEMERIS_TYPE":"0","REV_AT_EPOCH":"2231","ECCENTRICITY":"0.00010240","TIME_SYSTEM":"UTC","PERIOD":"95.592","MEAN_MOTION":"15.06401011","MEAN_ELEMENT_THEORY":"SGP4"}];
